*******************************************************************************
 Revised: Jun 02, 2025             Deimos / (Mars)                          402

 SATELLITE PHYSICAL PROPERTIES:
  Radius (km)             = 7.8 x 6.0 x 5.1 Density (g cm^-3)   =  1.76 +- 0.30
  Mass (10^20 kg )        = 1.80 (10^-5)    Geometric Albedo    =  0.06 
                               (+- 0.15)    V(1,0)              = +12.89

 SATELLITE ORBITAL DATA:
  Semi-major axis, a (km) = 23.4632(10^3)   Orbital period      = 1.263 d
  Eccentricity, e         =  0.00033        Rotational period   = Synchronous
  Inclination, i  (deg)   =  1.791
*******************************************************************************


*******************************************************************************
Ephemeris / WWW_USER Tue Apr  7 00:00:00 2026 Pasadena, USA      / Horizons
*******************************************************************************
Target body name: Deimos (402)                    {source: mar099}
Center body name: Sun (10)                        {source: DE441}
Center-site name: BODY CENTER
*******************************************************************************
Start time      : A.D. 2026-Apr-06 00:00:00.0000 TDB
Stop  time      : A.D. 2026-Apr-07 00:00:00.0000 TDB
Step-size       : 1440 minutes
*******************************************************************************
Center geodetic : 0.0, 0.0, 0.0                   {E-lon(deg),Lat(deg),Alt(km)}
Center cylindric: 0.0, 0.0, 0.0                   {E-lon(deg),Dxy(km),Dz(km)}
Center radii    : 695700.0, 695700.0, 695700.0 km {Equator_a, b, pole_c}
Output units    : KM-S
Calendar mode   : Mixed Julian/Gregorian
Output type     : GEOMETRIC cartesian states
Output format   : 3 (position, velocity, LT, range, range-rate)
Reference frame : Ecliptic of J2000.0
*******************************************************************************
JDTDB
   X     Y     Z
   VX    VY    VZ
   LT    RG    RR
*******************************************************************************
$$SOE
2461136.500000000 = A.D. 2026-Apr-06 00:00:00.0000 TDB 
 X = 1.975170745694488E+08 Y =-6.074077740634875E+07 Z =-6.107889962286178E+06
 VX= 7.432087889722185E+00 VY= 2.404473440015038E+01 VZ= 5.249023675658808E-01
 LT= 6.895968210688185E+02 RG= 2.067359260172072E+08 RR= 2.061737457403737E-02
2461137.500000000 = A.D. 2026-Apr-07 00:00:00.0000 TDB 
 X = 1.982256392335167E+08 Y =-5.854583782386250E+07 Z =-6.088799725298919E+06
 VX= 6.598869354530360E+00 VY= 2.561891036422775E+01 VZ= 8.892604786201463E-01
 LT= 6.897448382758163E+02 RG= 2.067803004595194E+08 RR=-9.538142845694130E-01
$$EOE
*******************************************************************************
 
TIME

  Barycentric Dynamical Time ("TDB" or T_eph) output was requested. This
continuous coordinate time is equivalent to the relativistic proper time
of a clock at rest in a reference frame co-moving with the solar system
barycenter but outside the system's gravity well. It is the independent
variable in the solar system relativistic equations of motion.

  TDB runs at a uniform rate of one SI second per second and is independent
of irregularities in Earth's rotation.
 
CALENDAR SYSTEM

  Mixed calendar mode was active such that calendar dates after AD 1582-Oct-15
(if any) are in the modern Gregorian system. Dates prior to 1582-Oct-5 (if any)
are in the Julian calendar system, which is automatically extended for dates
prior to its adoption on 45-Jan-1 BC.  The Julian calendar is useful for
matching historical dates. The Gregorian calendar more accurately corresponds
to the Earth's orbital motion and seasons. A "Gregorian-only" calendar mode is
available if such physical events are the primary interest.

REFERENCE FRAME AND COORDINATES

  Ecliptic at the standard reference epoch

    Reference epoch: J2000.0
    X-Y plane: adopted Earth orbital plane at the reference epoch
               Note: IAU76 obliquity of 84381.448 arcseconds wrt ICRF X-Y plane
    X-axis   : ICRF
    Z-axis   : perpendicular to the X-Y plane in the directional (+ or -) sense
               of Earth's north pole at the reference epoch.

  Symbol meaning:

    JDTDB    Julian Day Number, Barycentric Dynamical Time
      X      X-component of position vector (km)
      Y      Y-component of position vector (km)
      Z      Z-component of position vector (km)
      VX     X-component of velocity vector (km/sec)                           
      VY     Y-component of velocity vector (km/sec)                           
      VZ     Z-component of velocity vector (km/sec)                           
      LT     One-way down-leg Newtonian light-time (sec)
      RG     Range; distance from coordinate center (km)
      RR     Range-rate; radial velocity wrt coord. center (km/sec)

ABERRATIONS AND CORRECTIONS

 Geometric state vectors have NO corrections or aberrations applied.

Computations by ...

    Solar System Dynamics Group, Horizons On-Line Ephemeris System
    4800 Oak Grove Drive, Jet Propulsion Laboratory
    Pasadena, CA  91109   USA

    General site: https://ssd.jpl.nasa.gov/
    Mailing list: https://ssd.jpl.nasa.gov/email_list.html
    System news : https://ssd.jpl.nasa.gov/horizons/news.html
    User Guide  : https://ssd.jpl.nasa.gov/horizons/manual.html
    Connect     : browser        https://ssd.jpl.nasa.gov/horizons/app.html#/x
                  API            https://ssd-api.jpl.nasa.gov/doc/horizons.html
                  command-line   telnet ssd.jpl.nasa.gov 6775
                  e-mail/batch   https://ssd.jpl.nasa.gov/ftp/ssd/horizons_batch.txt
                  scripts        https://ssd.jpl.nasa.gov/ftp/ssd/SCRIPTS
    Author      : Jon.D.Giorgini@jpl.nasa.gov
*******************************************************************************
